[{"OBJECT_NAME":"GLOBALSTAR M083","OBJECT_ID":"2011-033A","EPOCH":"2026-03-09T23:41:24.899136","MEAN_MOTION":12.62267641,"ECCENTRICITY":8.219e-5,"INCLINATION":51.9873,"RA_OF_ASC_NODE":314.6255,"ARG_OF_PERICENTER":94.9846,"MEAN_ANOMALY":278.3239,"EPHEMERIS_TYPE":0,"CLASSIFICATION_TYPE":"U","NORAD_CAT_ID":37739,"ELEMENT_SET_NO":999,"REV_AT_EPOCH":68042,"BSTAR":0.00010431409,"MEAN_MOTION_DOT":-8.5e-7,"MEAN_MOTION_DDOT":0},{"OBJECT_NAME":"COSMOS 1694","OBJECT_ID":"1985-094E","EPOCH":"2026-03-09T18:18:58.065120","MEAN_MOTION":12.63684168,"ECCENTRICITY":0.00105021,"INCLINATION":82.6126,"RA_OF_ASC_NODE":325.605,"ARG_OF_PERICENTER":296.4806,"MEAN_ANOMALY":123.9373,"EPHEMERIS_TYPE":0,"CLASSIFICATION_TYPE":"U","NORAD_CAT_ID":16142,"ELEMENT_SET_NO":999,"REV_AT_EPOCH":86410,"BSTAR":2.283995e-5,"MEAN_MOTION_DOT":1.5e-7,"MEAN_MOTION_DDOT":0}]
